[{"OBJECT_NAME":"STARLINK-3518","OBJECT_ID":"2022-016U","EPOCH":"2026-03-09T22:16:30.904608","MEAN_MOTION":15.08831596,"ECCENTRICITY":0.00020824,"INCLINATION":53.2202,"RA_OF_ASC_NODE":318.0543,"ARG_OF_PERICENTER":95.3717,"MEAN_ANOMALY":264.7513,"EPHEMERIS_TYPE":0,"CLASSIFICATION_TYPE":"U","NORAD_CAT_ID":51732,"ELEMENT_SET_NO":999,"REV_AT_EPOCH":22474,"BSTAR":2.3749512e-5,"MEAN_MOTION_DOT":9.0e-7,"MEAN_MOTION_DDOT":0},{"OBJECT_NAME":"CZ-4B DEB","OBJECT_ID":"2006-015F","EPOCH":"2026-03-09T03:45:22.603968","MEAN_MOTION":14.99561687,"ECCENTRICITY":0.00700337,"INCLINATION":97.7654,"RA_OF_ASC_NODE":137.4599,"ARG_OF_PERICENTER":35.4601,"MEAN_ANOMALY":355.3004,"EPHEMERIS_TYPE":0,"CLASSIFICATION_TYPE":"U","NORAD_CAT_ID":29539,"ELEMENT_SET_NO":999,"REV_AT_EPOCH":5458,"BSTAR":0.0013707202,"MEAN_MOTION_DOT":0.00017712,"MEAN_MOTION_DDOT":0}]
